OBJECT_NAME,OBJECT_ID,EPOCH,MEAN_MOTION,ECCENTRICITY,INCLINATION,RA_OF_ASC_NODE,ARG_OF_PERICENTER,MEAN_ANOMALY,EPHEMERIS_TYPE,CLASSIFICATION_TYPE,NORAD_CAT_ID,ELEMENT_SET_NO,REV_AT_EPOCH,BSTAR,MEAN_MOTION_DOT,MEAN_MOTION_DDOT
BEIDOU-3S IGSO-1S (C31),2015-019A,2026-07-02T19:12:21.705408,1.00680073,.00768606,49.1798,295.2769,219.1125,144.2493,0,U,40549,999,4123,0,-.19E-5,0
GPS BIIF-10 (PRN 08),2015-033A,2026-07-08T03:53:28.726656,2.00555133,.01152466,53.9664,266.2211,30.2795,330.4465,0,U,40730,999,8041,0,-.3E-7,0
BEIDOU-3S M2S (C58),2015-037A,2026-07-08T19:13:57.071136,1.86232305,.0009251,54.8502,301.3028,257.3579,102.5592,0,U,40748,999,7452,0,-.66E-6,0
BEIDOU-3S M1S (C57),2015-037B,2026-07-08T11:15:42.004224,1.86254793,.00028863,54.8472,301.3010,63.4695,296.5811,0,U,40749,999,7452,0,-.65E-6,0
GSAT0206 (GALILEO 10),2015-045B,2026-07-07T23:42:16.285536,1.70473579,.00019272,54.9404,221.0297,331.1596,28.9023,0,U,40890,999,6739,0,.82E-6,0
BEIDOU-3S IGSO-2S (C56),2015-053A,2026-07-08T15:53:23.159040,1.00254954,.00660446,49.1885,258.5272,192.8213,167.4709,0,U,40938,999,3957,0,-.108E-5,0
GPS BIIF-11 (PRN 10),2015-062A,2026-07-09T05:08:49.603200,2.00566961,.01126064,56.9742,29.9632,230.9151,128.1287,0,U,41019,999,7827,0,-.5E-6,0
GSAT-15 (GAGAN/PRN 139),2015-065A,2026-07-09T07:15:13.504896,1.00271817,.00037504,0.0130,305.9394,142.9706,40.6451,0,U,41028,999,3902,0,-.244E-5,0
GSAT0209 (GALILEO 12),2015-079A,2026-07-08T03:44:33.897696,1.70473596,.00049977,55.8390,100.6867,350.6288,9.3765,0,U,41174,999,6513,0,-.8E-7,0
GSAT0208 (GALILEO 11),2015-079B,2026-07-08T09:01:55.815744,1.70473357,.00044233,55.8379,100.6775,15.9812,344.0466,0,U,41175,999,6555,0,-.9E-7,0
IRNSS-1E,2016-003A,2026-07-08T18:55:39.347904,1.00268624,.001924,33.2798,59.4366,178.8165,84.1076,0,U,41241,999,3829,0,-.309E-5,0
GPS BIIF-12 (PRN 32),2016-007A,2026-07-08T19:22:50.496096,2.00575699,.00966024,55.5370,88.6024,247.6357,111.3718,0,U,41328,999,7627,0,-.3E-6,0
COSMOS 2514 (751),2016-008A,2026-07-08T20:54:26.791488,2.13102560,.00120976,65.0074,312.2627,200.4182,159.5437,0,U,41330,999,8108,0,-.55E-6,0
BEIDOU-2 IGSO-6 (C13),2016-021A,2026-06-26T02:38:38.671584,1.00258926,.0057558,60.2385,37.9495,231.0163,137.2672,0,U,41434,999,3757,0,-.145E-5,0
IRNSS-1G,2016-027A,2026-07-08T15:17:38.735232,1.00274494,.00059978,5.2469,96.9783,8.4226,180.2448,0,U,41469,999,3739,0,-.323E-5,0
GSAT0211 (GALILEO 14),2016-030A,2026-07-06T17:45:56.222784,1.70473798,.00031513,55.0912,221.1568,320.2571,39.7906,0,U,41549,999,6300,0,.78E-6,0
GSAT0210 (GALILEO 13),2016-030B,2026-07-07T14:01:03.910656,1.70473798,.000782,55.0891,221.1315,257.5040,102.4802,0,U,41550,999,6301,0,.81E-6,0
BEIDOU-2 G7 (C03),2016-037A,2026-07-09T15:53:15.184320,1.00264599,.0006074,1.7726,69.5133,6.8145,199.9992,0,U,41586,999,711,0,-.341E-5,0
EUTELSAT 117 WEST B (WAAS/PRN 131),2016-038B,2026-07-08T23:27:36.592704,1.00273299,.00002306,0.0061,153.6694,314.6908,53.4649,0,U,41589,999,3688,0,.2E-7,0
GSAT0207 (GALILEO 15),2016-069A,2026-07-06T02:28:06.929472,1.70473349,.00044338,55.5088,100.5629,341.1065,18.8968,0,U,41859,999,5972,0,0,0
GSAT0212 (GALILEO 16),2016-069B,2026-07-07T03:06:21.976128,1.70473650,.000438,55.5076,100.5296,9.6218,350.4046,0,U,41860,999,5999,0,-.3E-7,0
GSAT0213 (GALILEO 17),2016-069C,2026-07-06T07:45:43.314336,1.70474232,.00046289,55.5092,100.5598,315.4701,44.5123,0,U,41861,999,5984,0,0,0
GSAT0214 (GALILEO 18),2016-069D,2026-07-06T11:16:20.180064,1.70473830,.00038073,55.5080,100.5485,326.3091,33.6861,0,U,41862,999,5997,0,-.1E-7,0
SES-15 (WAAS/PRN 133),2017-026A,2026-07-09T06:43:25.756608,1.00272478,.00009327,0.0249,323.7034,189.4272,105.7907,0,U,42709,999,765,0,.73E-6,0
QZS-2 (QZSS/PRN 194),2017-028A,2026-07-08T11:13:19.516800,1.00278468,.07581442,39.3957,242.8399,269.5205,84.7029,0,U,42738,999,784,0,-.96E-6,0
QZS-3 (QZSS/PRN 199),2017-048A,2026-07-09T07:24:42.594912,1.00275227,.00025515,0.0759,220.0107,261.8574,43.5507,0,U,42917,999,3248,0,-.334E-5,0
COSMOS 2522 (752),2017-055A,2026-07-08T05:44:58.761600,2.13101984,.00109377,64.0805,191.1677,240.8156,119.1060,0,U,42939,999,6842,0,.125E-5,0
QZS-4 (QZSS/PRN 195),2017-062A,2026-07-09T07:05:38.631264,1.00291949,.07473903,40.0957,343.2053,268.4335,280.7647,0,U,42965,999,3202,0,-.313E-5,0
BEIDOU-3 M1 (C19),2017-069A,2026-07-08T01:47:02.200992,1.86231373,.00095048,56.7094,62.3976,327.5124,32.4908,0,U,43001,999,5899,0,-.45E-6,0
BEIDOU-3 M2 (C20),2017-069B,2026-07-06T22:32:30.327360,1.86230659,.0008338,56.7079,62.4701,357.4299,2.6295,0,U,43002,999,5896,0,-.42E-6,0
GSAT0215 (GALILEO 19),2017-079A,2026-07-08T17:15:26.760672,1.70474306,.00036017,55.0687,220.9138,268.0155,92.0179,0,U,43055,999,5335,0,.86E-6,0
